IONOSFERA-M 2           
1 61736U 24199B   26173.85414575  .00000023  00000+0  29935-4 0  9992
2 61736  98.7167  46.8769 0000803  36.6953 323.4280 14.22758462131633
PRSC-EO1                
1 62725U 25012A   26173.86199418  .00005080  00000+0  25548-3 0  9996
2 62725  97.4224 246.2111 0005167 227.1731 132.9069 15.17667801 79054
BIOMASS                 
1 63772U 25090A   26173.76081435  .00000144  00000+0  33913-4 0  9995
2 63772  98.0743   0.9973 0001355  94.9790 265.1569 14.67535312 61501
GOSAT-GW (IBUKI GW)     
1 64694U 25141A   26173.84920947  .00000395  00000+0  78078-4 0  9994
2 64694  98.0573 111.0742 0001440  83.3915 276.7454 14.67556464 52670
IONOSFERA-M 3           
1 64876U 25155A   26173.80652972  .00000032  00000+0  34460-4 0  9992
2 64876  98.6034 135.5702 0001325 147.1642 212.9618 14.21487246 47203
IONOSFERA-M 4           
1 64877U 25155B   26173.84136225  .00000044  00000+0  39856-4 0  9992
2 64877  98.6026 135.5214 0001232 117.5604 242.5699 14.21489541 47207
MICROCARB               
1 64899U 25156A   26172.77107505  .00000338  00000+0  61326-4 0  9990
2 64899  97.9829 249.8266 0015016 256.1816 103.7720 14.72329260 48649
CO3D 3                  
1 64900U 25156B   26173.78256805  .00003364  00000+0  15842-3 0  9996
2 64900  97.4327 252.3953 0001716 125.0882 235.0514 15.20209058 50381
CO3D 4                  
1 64901U 25156C   26173.45360060  .00003206  00000+0  15109-3 0  9991
2 64901  97.4328 252.0710 0000229 198.3753 161.7474 15.20212165 50337
CO3D 2                  
1 64902U 25156D   26173.42026168  .00003337  00000+0  15717-3 0  9997
2 64902  97.4326 251.9370 0001510 105.1907 254.9496 15.20206646 50322
CO3D 1                  
1 64903U 25156E   26173.81535331  .00003376  00000+0  15898-3 0  9991
2 64903  97.4326 252.3266 0001377 110.9605 249.1777 15.20207404 50389
PRSC-S1                 
1 65055U 25164A   26173.70023939  .00002948  00000+0  20787-3 0  9990
2 65055  41.1300 256.7623 0005755  21.8647 338.2412 15.06495623 49268
SENTINEL-6B             
1 66514U 25264A   26173.55114715 -.00000050  00000+0  47211-4 0  9993
2 66514  66.0403 124.0375 0007976 269.1025  90.9077 12.80929970 27850
CAS500-3                
1 66655U 25274F   26173.72818245  .00000851  00000+0  97782-4 0  9994
2 66655  97.7444 101.6532 0006938  96.0246 264.1762 14.88331704 30972
CSG-3                   
1 67304U 26001A   26173.26232769  .00000194  00000+0  30933-4 0  9990
2 67304  97.8888 356.7906 0001421  96.1369 264.0006 14.82156461 25214
PRSC-E03                
1 68835U 26092A   26173.82161502  .00002084  00000+0  14490-3 0  9997
2 68835  38.0018  56.4543 0002834  57.8525 302.2512 15.06693005  8804
CAS500-2                
1 69013U 26100AK  26173.28496501  .00004701  00000+0  21709-3 0  9995
2 69013  97.4071  71.0517 0010167  18.6621 341.4985 15.20639717  7584
