OBJECT_NAME,OBJECT_ID,EPOCH,MEAN_MOTION,ECCENTRICITY,INCLINATION,RA_OF_ASC_NODE,ARG_OF_PERICENTER,MEAN_ANOMALY,EPHEMERIS_TYPE,CLASSIFICATION_TYPE,NORAD_CAT_ID,ELEMENT_SET_NO,REV_AT_EPOCH,BSTAR,MEAN_MOTION_DOT,MEAN_MOTION_DDOT
IONOSFERA-M 2,2024-199B,2026-06-22T20:29:58.192800,14.22758462,.00008032,98.7167,46.8769,36.6953,323.4280,0,U,61736,999,13163,.29935365E-4,.23E-6,0
PRSC-EO1,2025-012A,2026-06-22T20:41:16.297152,15.17667801,.00051675,97.4224,246.2111,227.1731,132.9069,0,U,62725,999,7905,.25548142E-3,.508E-4,0
BIOMASS,2025-090A,2026-06-22T18:15:34.359840,14.67535312,.00013555,98.0743,0.9973,94.9790,265.1569,0,U,63772,999,6150,.33913014E-4,.144E-5,0
GOSAT-GW (IBUKI GW),2025-141A,2026-06-22T20:22:51.698208,14.67556464,.00014408,98.0573,111.0742,83.3915,276.7454,0,U,64694,999,5267,.78078367E-4,.395E-5,0
IONOSFERA-M 3,2025-155A,2026-06-22T19:21:24.167808,14.21487246,.00013255,98.6034,135.5702,147.1642,212.9618,0,U,64876,999,4720,.3445953E-4,.32E-6,0
IONOSFERA-M 4,2025-155B,2026-06-22T20:11:33.698400,14.21489541,.00012324,98.6026,135.5214,117.5604,242.5699,0,U,64877,999,4720,.39856004E-4,.44E-6,0
MICROCARB,2025-156A,2026-06-21T18:30:20.884320,14.72329260,.00150161,97.9829,249.8266,256.1816,103.7720,0,U,64899,999,4864,.61326353E-4,.338E-5,0
CO3D 3,2025-156B,2026-06-22T18:46:53.879520,15.20209058,.00017168,97.4327,252.3953,125.0882,235.0514,0,U,64900,999,5038,.15842153E-3,.3364E-4,0
CO3D 4,2025-156C,2026-06-22T10:53:11.091840,15.20212165,.00002296,97.4328,252.0710,198.3753,161.7474,0,U,64901,999,5033,.15109448E-3,.3206E-4,0
CO3D 2,2025-156D,2026-06-22T10:05:10.609152,15.20206646,.00015109,97.4326,251.9370,105.1907,254.9496,0,U,64902,999,5032,.1571707E-3,.3337E-4,0
CO3D 1,2025-156E,2026-06-22T19:34:06.525984,15.20207404,.00013778,97.4326,252.3266,110.9605,249.1777,0,U,64903,999,5038,.1589821E-3,.3376E-4,0
PRSC-S1,2025-164A,2026-06-22T16:48:20.683296,15.06495623,.00057551,41.1300,256.7623,21.8647,338.2412,0,U,65055,999,4926,.20786905E-3,.2948E-4,0
SENTINEL-6B,2025-264A,2026-06-22T13:13:39.113760,12.80929970,.00079762,66.0403,124.0375,269.1025,90.9077,0,U,66514,999,2785,.47211403E-4,-.5E-6,0
CAS500-3,2025-274F,2026-06-22T17:28:34.963680,14.88331704,.00069389,97.7444,101.6532,96.0246,264.1762,0,U,66655,999,3097,.97782469E-4,.851E-5,0
CSG-3,2026-001A,2026-06-22T06:17:45.112416,14.82156461,.00014219,97.8888,356.7906,96.1369,264.0006,0,U,67304,999,2521,.30932847E-4,.194E-5,0
PRSC-E03,2026-092A,2026-06-22T19:43:07.537728,15.06693005,.00028341,38.0018,56.4543,57.8525,302.2512,0,U,68835,999,880,.14490478E-3,.2084E-4,0
CAS500-2,2026-100AK,2026-06-22T06:50:20.976864,15.20639717,.00101672,97.4071,71.0517,18.6621,341.4985,0,U,69013,999,758,.21708889E-3,.4701E-4,0
